[
    {
        "Altitude(m)": 715046.2622047607,
        "Argument of Periapsis(deg)": 0.004556048474650827,
        "Eccentricity": 0.0,
        "Inclination(deg)": 45.0,
        "Latitude(deg)": -38.30450036815633,
        "Longitude(deg)": -72.07089573179731,
        "Mean Anomaly(deg)": -60.84121334100767,
        "RAAN(deg)": 79.99569922341672,
        "Satellite Name": "Constellation 1 370",
        "Satellite Number": 370,
        "Semi-Major Axis(m)": 7083131.272910544,
        "Time(s)": 76
    },
    {
        "Altitude(m)": 715035.2879391946,
        "Argument of Periapsis(deg)": 0.004615996480896233,
        "Eccentricity": 0.0,
        "Inclination(deg)": 45.0,
        "Latitude(deg)": -38.27790580838326,
        "Longitude(deg)": -72.00577846688066,
        "Mean Anomaly(deg)": -60.780512200757755,
        "RAAN(deg)": 79.99564263425114,
        "Satellite Name": "Constellation 1 370",
        "Satellite Number": 370,
        "Semi-Major Axis(m)": 7083131.272910544,
        "Time(s)": 77
    },
    {
        "Altitude(m)": 715024.2976898983,
        "Argument of Periapsis(deg)": 0.004675944487141638,
        "Eccentricity": 0.0,
        "Inclination(deg)": 45.0,
        "Latitude(deg)": -38.25127028535386,
        "Longitude(deg)": -71.94071158280435,
        "Mean Anomaly(deg)": -60.719811060507894,
        "RAAN(deg)": 79.99558604508557,
        "Satellite Name": "Constellation 1 370",
        "Satellite Number": 370,
        "Semi-Major Axis(m)": 7083131.272910544,
        "Time(s)": 78
    },
    {
        "Altitude(m)": 715013.2914967476,
        "Argument of Periapsis(deg)": 0.004735892493387044,
        "Eccentricity": 0.0,
        "Inclination(deg)": 45.0,
        "Latitude(deg)": -38.224593866901486,
        "Longitude(deg)": -71.87569507184051,
        "Mean Anomaly(deg)": -60.65910992025793,
        "RAAN(deg)": 79.99552945592,
        "Satellite Name": "Constellation 1 370",
        "Satellite Number": 370,
        "Semi-Major Axis(m)": 7083131.272910544,
        "Time(s)": 79
    },
    {
        "Altitude(m)": 715002.2693996648,
        "Argument of Periapsis(deg)": 0.004795840499632449,
        "Eccentricity": 0.0,
        "Inclination(deg)": 45.0,
        "Latitude(deg)": -38.19787662083051,
        "Longitude(deg)": -71.81072892591006,
        "Mean Anomaly(deg)": -60.59840878000802,
        "RAAN(deg)": 79.99547286675444,
        "Satellite Name": "Constellation 1 370",
        "Satellite Number": 370,
        "Semi-Major Axis(m)": 7083131.272910544,
        "Time(s)": 80
    },
    {
        "Altitude(m)": 714991.231438649,
        "Argument of Periapsis(deg)": 0.004855788505877855,
        "Eccentricity": 0.0,
        "Inclination(deg)": 45.0,
        "Latitude(deg)": -38.17111861491561,
        "Longitude(deg)": -71.74581313658364,
        "Mean Anomaly(deg)": -60.53770763975816,
        "RAAN(deg)": 79.99541627758886,
        "Satellite Name": "Constellation 1 370",
        "Satellite Number": 370,
        "Semi-Major Axis(m)": 7083131.272910544,
        "Time(s)": 81
    },
    {
        "Altitude(m)": 714980.1776537328,
        "Argument of Periapsis(deg)": 0.00491573651212326,
        "Eccentricity": 0.0,
        "Inclination(deg)": 45.0,
        "Latitude(deg)": -38.144319916901324,
        "Longitude(deg)": -71.68094786317992,
        "Mean Anomaly(deg)": -60.4770064995083,
        "RAAN(deg)": 79.99535968842329,
        "Satellite Name": "Constellation 1 370",
        "Satellite Number": 370,
        "Semi-Major Axis(m)": 7083131.272910544,
        "Time(s)": 82
    },
    {
        "Altitude(m)": 714969.1080850132,
        "Argument of Periapsis(deg)": 0.004975684518368666,
        "Eccentricity": 0.0,
        "Inclination(deg)": 45.0,
        "Latitude(deg)": -38.11748059450169,
        "Longitude(deg)": -71.61613276037883,
        "Mean Anomaly(deg)": -60.41630535925835,
        "RAAN(deg)": 79.99530309925774,
        "Satellite Name": "Constellation 1 370",
        "Satellite Number": 370,
        "Semi-Major Axis(m)": 7083131.272910544,
        "Time(s)": 83
    },
    {
        "Altitude(m)": 714958.0227726322,
        "Argument of Periapsis(deg)": 0.005035632524614072,
        "Eccentricity": 0.0,
        "Inclination(deg)": 45.0,
        "Latitude(deg)": -38.09060071539993,
        "Longitude(deg)": -71.55136798680608,
        "Mean Anomaly(deg)": -60.35560421900844,
        "RAAN(deg)": 79.99524651009216,
        "Satellite Name": "Constellation 1 370",
        "Satellite Number": 370,
        "Semi-Major Axis(m)": 7083131.272910544,
        "Time(s)": 84
    },
    {
        "Altitude(m)": 714946.9217568013,
        "Argument of Periapsis(deg)": 0.0050955805308594785,
        "Eccentricity": 0.0,
        "Inclination(deg)": 45.0,
        "Latitude(deg)": -38.06368034724791,
        "Longitude(deg)": -71.48665353264563,
        "Mean Anomaly(deg)": -60.29490307875858,
        "RAAN(deg)": 79.99518992092659,
        "Satellite Name": "Constellation 1 370",
        "Satellite Number": 370,
        "Semi-Major Axis(m)": 7083131.272910544,
        "Time(s)": 85
    },
    {
        "Altitude(m)": 714935.8050777667,
        "Argument of Periapsis(deg)": 0.005155528537104883,
        "Eccentricity": 0.0,
        "Inclination(deg)": 45.0,
        "Latitude(deg)": -38.03671955766566,
        "Longitude(deg)": -71.4219893877382,
        "Mean Anomaly(deg)": -60.23420193850865,
        "RAAN(deg)": 79.99513333176101,
        "Satellite Name": "Constellation 1 370",
        "Satellite Number": 370,
        "Semi-Major Axis(m)": 7083131.272910544,
        "Time(s)": 86
    },
    {
        "Altitude(m)": 714924.6727758361,
        "Argument of Periapsis(deg)": 0.0052154765433502885,
        "Eccentricity": 0.0,
        "Inclination(deg)": 45.0,
        "Latitude(deg)": -38.0097184142411,
        "Longitude(deg)": -71.35737554158295,
        "Mean Anomaly(deg)": -60.173500798258715,
        "RAAN(deg)": 79.99507674259546,
        "Satellite Name": "Constellation 1 370",
        "Satellite Number": 370,
        "Semi-Major Axis(m)": 7083131.272910544,
        "Time(s)": 87
    },
    {
        "Altitude(m)": 714913.5248913779,
        "Argument of Periapsis(deg)": 0.005275424549595694,
        "Eccentricity": 0.0,
        "Inclination(deg)": 45.0,
        "Latitude(deg)": -37.98267698452954,
        "Longitude(deg)": -71.29281198333904,
        "Mean Anomaly(deg)": -60.11279965800884,
        "RAAN(deg)": 79.99502015342989,
        "Satellite Name": "Constellation 1 370",
        "Satellite Number": 370,
        "Semi-Major Axis(m)": 7083131.272910544,
        "Time(s)": 88
    },
    {
        "Altitude(m)": 714902.3614648042,
        "Argument of Periapsis(deg)": 0.0053353725558411,
        "Eccentricity": 0.0,
        "Inclination(deg)": 45.0,
        "Latitude(deg)": -37.95559533605335,
        "Longitude(deg)": -71.2282988699239,
        "Mean Anomaly(deg)": -60.05209851775898,
        "RAAN(deg)": 79.99496356426431,
        "Satellite Name": "Constellation 1 370",
        "Satellite Number": 370,
        "Semi-Major Axis(m)": 7083131.272910544,
        "Time(s)": 89
    },
    {
        "Altitude(m)": 714891.1825365805,
        "Argument of Periapsis(deg)": 0.005395320562086505,
        "Eccentricity": 0.0,
        "Inclination(deg)": 45.0,
        "Latitude(deg)": -37.92847353630118,
        "Longitude(deg)": -71.1638358536257,
        "Mean Anomaly(deg)": -59.99139737750907,
        "RAAN(deg)": 79.99490697509874,
        "Satellite Name": "Constellation 1 370",
        "Satellite Number": 370,
        "Semi-Major Axis(m)": 7083131.272910544,
        "Time(s)": 90
    },
    {
        "Altitude(m)": 714879.9881472307,
        "Argument of Periapsis(deg)": 0.00545526856833191,
        "Eccentricity": 0.0,
        "Inclination(deg)": 45.0,
        "Latitude(deg)": -37.90131165272818,
        "Longitude(deg)": -71.09942309068866,
        "Mean Anomaly(deg)": -59.93069623725911,
        "RAAN(deg)": 79.99485038593318,
        "Satellite Name": "Constellation 1 370",
        "Satellite Number": 370,
        "Semi-Major Axis(m)": 7083131.272910544,
        "Time(s)": 91
    },
    {
        "Altitude(m)": 714868.7783373236,
        "Argument of Periapsis(deg)": 0.005515216574577317,
        "Eccentricity": 0.0,
        "Inclination(deg)": 45.0,
        "Latitude(deg)": -37.87410975275521,
        "Longitude(deg)": -71.03506056892542,
        "Mean Anomaly(deg)": -59.86999509700931,
        "RAAN(deg)": 79.99479379676761,
        "Satellite Name": "Constellation 1 370",
        "Satellite Number": 370,
        "Semi-Major Axis(m)": 7083131.272910544,
        "Time(s)": 92
    },
    {
        "Altitude(m)": 714857.5531474849,
        "Argument of Periapsis(deg)": 0.005575164580822722,
        "Eccentricity": 0.0,
        "Inclination(deg)": 45.0,
        "Latitude(deg)": -37.84686790376834,
        "Longitude(deg)": -70.97074827581505,
        "Mean Anomaly(deg)": -59.8092939567594,
        "RAAN(deg)": 79.99473720760203,
        "Satellite Name": "Constellation 1 370",
        "Satellite Number": 370,
        "Semi-Major Axis(m)": 7083131.272910544,
        "Time(s)": 93
    },
    {
        "Altitude(m)": 714846.3126183966,
        "Argument of Periapsis(deg)": 0.005635112587068129,
        "Eccentricity": 0.0,
        "Inclination(deg)": 45.0,
        "Latitude(deg)": -37.81958617311874,
        "Longitude(deg)": -70.90648619850546,
        "Mean Anomaly(deg)": -59.748592816509486,
        "RAAN(deg)": 79.99468061843646,
        "Satellite Name": "Constellation 1 370",
        "Satellite Number": 370,
        "Semi-Major Axis(m)": 7083131.272910544,
        "Time(s)": 94
    }
]